OBJECT_NAME,OBJECT_ID,EPOCH,MEAN_MOTION,ECCENTRICITY,INCLINATION,RA_OF_ASC_NODE,ARG_OF_PERICENTER,MEAN_ANOMALY,EPHEMERIS_TYPE,CLASSIFICATION_TYPE,NORAD_CAT_ID,ELEMENT_SET_NO,REV_AT_EPOCH,BSTAR,MEAN_MOTION_DOT,MEAN_MOTION_DDOT
ONEWEB-0534,2023-029B,2026-06-15T18:58:00.167808,13.20771482,.0001868,87.9186,274.7481,100.4877,259.6467,0,U,55797,999,16096,.11027208E-3,.58E-6,0
ONEWEB-0556,2023-029C,2026-06-15T19:07:41.857536,13.20773544,.000165,87.9183,274.7462,74.9070,285.2246,0,U,55798,999,16096,.68960236E-4,.41E-6,0
ONEWEB-0562,2023-029D,2026-06-15T20:37:23.551968,13.20770356,.00023215,87.9185,274.7150,79.8302,280.3093,0,U,55799,999,16097,-.8358517E-4,-.21E-6,0
ONEWEB-0563,2023-029E,2026-06-15T20:30:07.806528,13.20773233,.00016724,87.9181,274.7458,104.0448,256.0871,0,U,55800,999,16096,.12137565E-3,.62E-6,0
ONEWEB-0564,2023-029F,2026-06-15T20:20:26.137536,13.20771096,.00021551,87.9184,274.7208,90.5279,269.6102,0,U,55801,999,16097,-.48030751E-4,-.7E-7,0
ONEWEB-0638,2023-029G,2026-06-15T19:04:14.306592,13.14505315,.00018225,87.8953,290.0294,82.2628,277.8708,0,U,55802,999,15921,.12204351E-2,.465E-5,0
ONEWEB-0639,2023-029H,2026-06-15T21:28:19.181280,13.19725024,.00012299,87.9169,305.2334,127.6399,232.4845,0,U,55803,999,15873,-.10284603E-3,-.28E-6,0
ONEWEB-0640,2023-029J,2026-06-15T21:07:31.891872,13.14502658,.00013896,87.8955,290.0033,82.6552,277.4735,0,U,55804,999,15924,.2990374E-3,.124E-5,0
ONEWEB-0641,2023-029K,2026-06-15T21:21:29.123424,13.19724673,.00017684,87.9176,305.2235,103.2208,256.9122,0,U,55805,999,15874,-.59261907E-4,-.11E-6,0
ONEWEB-0642,2023-029L,2026-06-15T21:14:40.314048,13.19724574,.00015352,87.9169,305.2363,125.4748,234.6528,0,U,55806,999,15873,-.14362234E-4,.7E-7,0
ONEWEB-0643,2023-029M,2026-06-15T20:24:09.076320,13.14503813,.00018589,87.8953,289.9964,121.7240,238.4072,0,U,55807,999,15921,-.68584272E-4,-.13E-6,0
ONEWEB-0644,2023-029N,2026-06-15T21:07:50.421216,13.19724178,.00017094,87.9167,305.2387,109.2952,250.8365,0,U,55808,999,15873,-.90651542E-4,-.23E-6,0
ONEWEB-0645,2023-029P,2026-06-15T21:39:40.809888,13.19724038,.00013945,87.9167,305.2312,99.5588,260.5703,0,U,55809,999,15873,-.15610401E-3,-.5E-6,0
ONEWEB-0646,2023-029Q,2026-06-15T22:04:42.921408,13.19725601,.00017266,87.9166,305.2279,107.5876,252.5445,0,U,55810,999,15872,-.72788124E-4,-.16E-6,0
ONEWEB-0648,2023-029R,2026-06-15T21:28:03.716544,13.14500704,.00010716,87.8966,289.9610,118.1878,241.9360,0,U,55811,999,15922,-.56446034E-3,-.196E-5,0
ONEWEB-0649,2023-029S,2026-06-15T22:41:05.670528,13.19724690,.00016083,87.9168,305.2206,101.1122,259.0191,0,U,55812,999,15876,-.61713656E-4,-.12E-6,0
ONEWEB-0650,2023-029T,2026-06-15T22:34:15.285216,13.19724908,.0001556,87.9168,305.2239,115.3289,244.8005,0,U,55813,999,15873,-.29661675E-4,.1E-7,0
ONEWEB-0652,2023-029U,2026-06-15T21:00:39.380256,13.14504542,.00020299,87.8962,289.9722,98.7441,261.3919,0,U,55814,999,15919,.42642318E-3,.171E-5,0
ONEWEB-0653,2023-029V,2026-06-15T20:37:50.136384,13.14503635,.00018814,87.8960,289.9732,98.0275,262.1069,0,U,55815,999,15922,.54995924E-3,.217E-5,0
ONEWEB-0654,2023-029W,2026-06-15T20:30:59.142816,13.14504055,.00021405,87.8961,289.9704,92.5865,267.5510,0,U,55816,999,15924,.13598237E-3,.63E-6,0
ONEWEB-0656,2023-029X,2026-06-15T20:10:43.872384,13.20773163,.00022998,87.9196,274.6979,92.5095,267.6301,0,U,55817,999,16097,-.88191668E-4,-.23E-6,0
ONEWEB-0657,2023-029Y,2026-06-15T22:27:27.609408,13.19724733,.00025289,87.9168,305.2237,103.3078,256.8337,0,U,55818,999,15874,-.11921721E-3,-.35E-6,0
ONEWEB-0658,2023-029Z,2026-06-15T22:20:37.993920,13.19724816,.0001666,87.9176,305.2000,110.7154,249.4158,0,U,55819,999,15875,-.43869155E-4,-.5E-7,0
ONEWEB-0660,2023-029AA,2026-06-15T21:48:37.484352,13.14503092,.00015562,87.8972,289.9526,97.5937,262.5370,0,U,55820,999,15923,-.61707024E-3,-.216E-5,0
ONEWEB-0661,2023-029AB,2026-06-15T20:49:16.253472,13.14502844,.00016345,87.8955,290.0058,94.5703,265.5613,0,U,55821,999,15921,.53907875E-3,.213E-5,0
ONEWEB-0662,2023-029AC,2026-06-15T21:39:29.967552,13.14502460,.0001589,87.8953,290.0050,97.8366,262.2944,0,U,55822,999,15926,-.77869961E-3,-.276E-5,0
ONEWEB-0663,2023-029AD,2026-06-15T19:10:19.082208,13.20869125,.00015368,87.9199,274.7781,106.1051,254.0251,0,U,55823,999,16096,.38770435E-4,.29E-6,0
ONEWEB-0664,2023-029AE,2026-06-15T19:51:20.153376,13.20770487,.00018081,87.9181,274.7535,86.2303,273.9037,0,U,55824,999,16096,-.15866715E-3,-.52E-6,0
ONEWEB-0665,2023-029AF,2026-06-15T20:44:42.211680,13.14503199,.00015345,87.8953,289.9873,101.4656,258.6646,0,U,55825,999,15923,.34966307E-3,.142E-5,0
ONEWEB-0666,2023-029AG,2026-06-15T17:52:33.019104,13.20771348,.00026557,87.9182,274.7600,105.3491,254.7936,0,U,55826,999,16096,.15704252E-4,.19E-6,0
