ONEWEB-0534             
1 55797U 23029B   26166.79027972  .00000058  00000+0  11027-3 0  9999
2 55797  87.9186 274.7481 0001868 100.4877 259.6467 13.20771482160963
ONEWEB-0556             
1 55798U 23029C   26166.79701224  .00000041  00000+0  68960-4 0  9990
2 55798  87.9183 274.7462 0001650  74.9070 285.2246 13.20773544160960
ONEWEB-0562             
1 55799U 23029D   26166.85930037 -.00000021  00000+0 -83585-4 0  9994
2 55799  87.9185 274.7150 0002321  79.8302 280.3093 13.20770356160970
ONEWEB-0563             
1 55800U 23029E   26166.85425702  .00000062  00000+0  12138-3 0  9993
2 55800  87.9181 274.7458 0001672 104.0448 256.0871 13.20773233160960
ONEWEB-0564             
1 55801U 23029F   26166.84752474 -.00000007  00000+0 -48031-4 0  9995
2 55801  87.9184 274.7208 0002155  90.5279 269.6102 13.20771096160978
ONEWEB-0638             
1 55802U 23029G   26166.79461003  .00000465  00000+0  12204-2 0  9992
2 55802  87.8953 290.0294 0001822  82.2628 277.8708 13.14505315159214
ONEWEB-0639             
1 55803U 23029H   26166.89466645 -.00000028  00000+0 -10285-3 0  9996
2 55803  87.9169 305.2334 0001229 127.6399 232.4845 13.19725024158730
ONEWEB-0640             
1 55804U 23029J   26166.88023023  .00000124  00000+0  29904-3 0  9998
2 55804  87.8955 290.0033 0001389  82.6552 277.4735 13.14502658159243
ONEWEB-0641             
1 55805U 23029K   26166.88992041 -.00000011  00000+0 -59262-4 0  9992
2 55805  87.9176 305.2235 0001768 103.2208 256.9122 13.19724673158746
ONEWEB-0642             
1 55806U 23029L   26166.88518882  .00000007  00000+0 -14362-4 0  9996
2 55806  87.9169 305.2363 0001535 125.4748 234.6528 13.19724574158730
ONEWEB-0643             
1 55807U 23029M   26166.85010505 -.00000013  00000+0 -68584-4 0  9996
2 55807  87.8953 289.9964 0001858 121.7240 238.4072 13.14503813159216
ONEWEB-0644             
1 55808U 23029N   26166.88044469 -.00000023  00000+0 -90652-4 0  9998
2 55808  87.9167 305.2387 0001709 109.2952 250.8365 13.19724178158735
ONEWEB-0645             
1 55809U 23029P   26166.90255567 -.00000050  00000+0 -15610-3 0  9995
2 55809  87.9167 305.2312 0001394  99.5588 260.5703 13.19724038158739
ONEWEB-0646             
1 55810U 23029Q   26166.91994122 -.00000016  00000+0 -72788-4 0  9997
2 55810  87.9166 305.2279 0001726 107.5876 252.5445 13.19725601158721
ONEWEB-0648             
1 55811U 23029R   26166.89448746 -.00000196  00000+0 -56446-3 0  9992
2 55811  87.8966 289.9610 0001071 118.1878 241.9360 13.14500704159223
ONEWEB-0649             
1 55812U 23029S   26166.94520452 -.00000012  00000+0 -61714-4 0  9996
2 55812  87.9168 305.2206 0001608 101.1122 259.0191 13.19724690158769
ONEWEB-0650             
1 55813U 23029T   26166.94045469  .00000001  00000+0 -29662-4 0  9990
2 55813  87.9168 305.2239 0001556 115.3289 244.8005 13.19724908158734
ONEWEB-0652             
1 55814U 23029U   26166.87545579  .00000171  00000+0  42642-3 0  9999
2 55814  87.8962 289.9722 0002029  98.7441 261.3919 13.14504542159195
ONEWEB-0653             
1 55815U 23029V   26166.85960806  .00000217  00000+0  54996-3 0  9998
2 55815  87.8960 289.9732 0001881  98.0275 262.1069 13.14503635159229
ONEWEB-0654             
1 55816U 23029W   26166.85485119  .00000063  00000+0  13598-3 0  9990
2 55816  87.8961 289.9704 0002140  92.5865 267.5510 13.14504055159242
ONEWEB-0656             
1 55817U 23029X   26166.84078556 -.00000023  00000+0 -88192-4 0  9994
2 55817  87.9196 274.6979 0002299  92.5095 267.6301 13.20773163160975
ONEWEB-0657             
1 55818U 23029Y   26166.93573622 -.00000035  00000+0 -11922-3 0  9998
2 55818  87.9168 305.2237 0002528 103.3078 256.8337 13.19724733158748
ONEWEB-0658             
1 55819U 23029Z   26166.93099530 -.00000005  00000+0 -43869-4 0  9993
2 55819  87.9176 305.2000 0001666 110.7154 249.4158 13.19724816158757
ONEWEB-0660             
1 55820U 23029AA  26166.90876718 -.00000216  00000+0 -61707-3 0  9997
2 55820  87.8972 289.9526 0001556  97.5937 262.5370 13.14503092159234
ONEWEB-0661             
1 55821U 23029AB  26166.86754923  .00000213  00000+0  53908-3 0  9995
2 55821  87.8955 290.0058 0001634  94.5703 265.5613 13.14502844159219
ONEWEB-0662             
1 55822U 23029AC  26166.90243018 -.00000276  00000+0 -77870-3 0  9994
2 55822  87.8953 290.0050 0001589  97.8366 262.2944 13.14502460159260
ONEWEB-0663             
1 55823U 23029AD  26166.79883197  .00000029  00000+0  38770-4 0  9991
2 55823  87.9199 274.7781 0001536 106.1051 254.0251 13.20869125160961
ONEWEB-0664             
1 55824U 23029AE  26166.82731659 -.00000052  00000+0 -15867-3 0  9990
2 55824  87.9181 274.7535 0001808  86.2303 273.9037 13.20770487160964
ONEWEB-0665             
1 55825U 23029AF  26166.86437745  .00000142  00000+0  34966-3 0  9993
2 55825  87.8953 289.9873 0001534 101.4656 258.6646 13.14503199159232
ONEWEB-0666             
1 55826U 23029AG  26166.74482661  .00000019  00000+0  15704-4 0  9991
2 55826  87.9182 274.7600 0002655 105.3491 254.7936 13.20771348160964
